[{"OBJECT_NAME":"STARLINK-36259","OBJECT_ID":"2025-299E","EPOCH":"2026-03-09T22:00:01.999584","MEAN_MOTION":15.37963448,"ECCENTRICITY":0.00013295,"INCLINATION":43.0007,"RA_OF_ASC_NODE":167.5121,"ARG_OF_PERICENTER":271.8286,"MEAN_ANOMALY":77.0727,"EPHEMERIS_TYPE":0,"CLASSIFICATION_TYPE":"U","NORAD_CAT_ID":67106,"ELEMENT_SET_NO":999,"REV_AT_EPOCH":590,"BSTAR":-0.06132752,"MEAN_MOTION_DOT":-0.02109639,"MEAN_MOTION_DDOT":0},{"OBJECT_NAME":"COSMOS 2251 DEB","OBJECT_ID":"1993-036BN","EPOCH":"2026-03-09T17:54:27.582912","MEAN_MOTION":15.31852549,"ECCENTRICITY":0.0043021,"INCLINATION":74.0291,"RA_OF_ASC_NODE":318.0178,"ARG_OF_PERICENTER":323.0874,"MEAN_ANOMALY":36.7369,"EPHEMERIS_TYPE":0,"CLASSIFICATION_TYPE":"U","NORAD_CAT_ID":33821,"ELEMENT_SET_NO":999,"REV_AT_EPOCH":76330,"BSTAR":0.0011195846,"MEAN_MOTION_DOT":0.00035571,"MEAN_MOTION_DDOT":0}]
